IRIDIUM 106             
1 41917U 17003A   25070.53021206  .00000138  00000+0  42127-4 0  9997
2 41917  86.3919 281.8495 0001951  74.4524 285.6887 14.34217507426896
IRIDIUM 103             
1 41918U 17003B   25070.51753782  .00000216  00000+0  69949-4 0  9995
2 41918  86.3917 281.7559 0002715  83.2753 276.8751 14.34220207426912
IRIDIUM 109             
1 41919U 17003C   25070.52386859  .00000212  00000+0  68488-4 0  9997
2 41919  86.3919 281.8050 0002274  92.6001 267.5455 14.34218161426882
IRIDIUM 102             
1 41920U 17003D   25070.56192421  .00000142  00000+0  43675-4 0  9996
2 41920  86.3916 281.7224 0001995  90.1667 269.9757 14.34217845426972
IRIDIUM 105             
1 41921U 17003E   25070.53266004  .00000046  00000+0  91860-5 0  9996
2 41921  86.3924 250.1450 0002158  89.4153 270.7290 14.34217641428828
IRIDIUM 104             
1 41922U 17003F   25070.57460925  .00000085  00000+0  23426-4 0  9994
2 41922  86.3916 281.7527 0002598  93.8458 266.3035 14.34217632426961
IRIDIUM 114             
1 41923U 17003G   25070.58095185  .00000099  00000+0  28364-4 0  9999
2 41923  86.3919 281.7351 0002364  85.3271 274.8195 14.34217793426947
IRIDIUM 108             
1 41924U 17003H   25070.53947247  .00000181  00000+0  57665-4 0  9998
2 41924  86.3919 250.0496 0001911  85.5496 274.5918 14.34218636428797
